#dP2022 10 20  0  0  0.00000000      96 __u+U ITR14 FIT  IAC
## 2232 345600.00000000   900.00000000 59872 0.0000000000000
+  128   C01C02C03C04C05C06C07C08C09C10C11C12C13C14C16C19C20
+        C21C22C23C24C25C26C27C28C29C30C32C33C34C35C36C37C38
+        C39C40C41C42C43C44C45C46C59C60E01E02E03E04E05E07E08
+        E09E10E11E12E13E14E15E18E19E24E25E26E27E30E31E33E34
+        E36G01G02G03G04G05G06G07G08G09G10G11G12G13G14G15G16
+        G17G18G19G20G21G22G23G24G25G26G27G28G29G30G31G32J02
+        J03J04J07R01R02R03R04R05R06R07R08R09R10R11R12R13R14
+        R15R17R18R19R20R21R22R23R24  0  0  0  0  0  0  0  0
++        17 16  0 17 16  9  9  9  9  9  8  8  9  9  9  7  7
++         7  7  7  7  7  7  7  7  7  7  7  7  7  7  7  8  8
++         8  8  7  7  7  7  7  7 17 16  5  4  4  4  4  4  4
++         4  4  4  4  4  4  4  5  4  4  4  4  4  4  4  4  4
++         4  4  4  4  3  4  3  4  4  3  4  3  4  4  4  4  3
++         4  3  4  4  4  4  4  4  4  4  4  4  4  4  4  4  8
++         8  8 17  7  6  6  6  6 15  6  6  6 15  6  6  7  6
++         6  6  6  7  7  6  8 15  6  0  0  0  0  0  0  0  0
%c M  cc GPS ccc cccc cccc cccc cccc ccccc ccccc ccccc ccccc
%c cc cc ccc ccc cccc cccc cccc cccc ccccc ccccc ccccc ccccc
%f  0.0000000  0.000000000  0.00000000000  0.000000000000000
%f  0.0000000  0.000000000  0.00000000000  0.000000000000000
%i    0    0    0    0      0      0      0      0         0
%i    0    0    0    0      0      0      0      0         0
/* INFORMATION & ANALYSIS CENTER (IAC)            RAPID DATA
/* S/V CLOCKS ARE ALIGNED TO GNSS TIME                      
/* G:C1WC2W R:C1PC2P E:C1XC5X C:C2IC6I J:C1CC2S             
/* PCV:IGS14_2218 OL/AL:FES2004  NONE     YN ORB:CoN CLK:CoN
*  2022 10 20  7  0  0.00000000
PC01 -34321.773820  24476.082670   -259.169041    789.811761
PC02   4585.624411  42004.051194    630.336417    596.421719
PC03      0.000000      0.000000      0.000000 999999.999999
PC04 -39642.329141  14360.269922   -526.886177    142.415831
PC05  21823.657814  36096.428099   1140.852881    269.580000
PC06  -1694.934200  28448.328431  31154.591338    889.912356
PC07 -17839.907343  30269.848571 -23370.649010    331.059861
PC08  -9999.453029  40439.097929  -5825.132039    497.787097
PC09   7373.476162  32883.206327  26024.416579   -829.763230
PC10 -10309.598937  30375.757232 -27290.795354     81.072234
PC11 -15403.203978 -20353.214501  11395.531130   -340.975916
PC12   1857.857338 -16705.536983  22322.373351   -475.090029
PC13  -3920.515428  41731.210748   2959.308362    111.627595
PC14  -7471.033194 -13954.567692 -22973.761548    584.630531
PC16  -5972.538197  25526.478003  33261.510267    127.222135
PC19  16745.874755   7751.373078  20944.760358   -917.358375
PC20  -1259.025637  17295.770728  21871.582948    859.898605
PC21  19831.158747 -17071.101086  -9669.570677   -641.901874
PC22  25921.543497  -6695.757529   7827.425136   -840.648745
PC23 -16384.031792   2170.236071  22491.837776   -643.713510
PC24    606.999934 -27847.075260   1950.801457   -698.849865
PC25 -12265.748138 -17218.456827  18221.182810     12.329554
PC26  10670.181387 -22074.233278 -13373.567556    -24.032596
PC27 -10839.339202  11776.174874 -22876.375109     38.650678
PC28 -23062.682983  -2986.700640 -15426.599351     26.364511
PC29  22679.727650  16130.780853  -2019.232839     29.231225
PC30   7864.776130  19855.477035 -17974.578142      0.608159
PC32 -19772.437713  17210.333462   9585.100327   -751.894167
PC33 -16731.808599  -7734.256610 -20959.533242   -931.539994
PC34  -8945.464456 -20032.987335  17228.271201     20.708708
PC35  23742.681062   3379.392925  14286.089986     50.066270
PC36  11567.142912  18028.196953 -17855.258229   -774.280262
PC37 -11810.747932  20788.055784  14385.055087   -566.232760
PC38 -13890.962723  37494.832800 -13069.773807     32.327235
PC39  -9730.495189  22565.215115  34296.531547     -0.674619
PC40 -25322.012463  24474.530564 -23343.026600     -6.395564
PC41 -25849.520729   6408.881754  -8289.329006   -190.934318
PC42   2492.077736 -17666.188431 -21419.308905   -507.389715
PC43 -22274.758639 -16570.598928   2736.863282     20.535218
PC44  10704.677201 -12105.251818  22744.005836     87.253702
PC45  16260.201531  -2644.911348 -22523.081486    -12.023840
PC46    580.041068  27634.759897  -3663.972136     -7.480823
PC59 -32338.754417  27039.199958    629.127170      0.183628
PC60   7319.977091  41504.224947   -852.605477     -1.070700
PE01  12946.317637  10575.450165 -24419.814286   -549.887146
PE02 -13063.860004 -10424.009075  24435.017785    331.839607
PE03 -25079.250803 -10345.205188 -11862.062344   -611.562178
PE04  28863.447868  -2130.851123  -6214.923941  -1140.519081
PE05  -6445.465397 -17010.055609 -23356.433098   -132.788745
PE07 -15627.223735  13680.520976  21090.921240   -714.713801
PE08 -28851.146349   2187.648185   6262.091922   -618.381059
PE09  15737.683619 -13533.418972 -21104.288330   -699.575128
PE10  12954.312668  -9787.484013  24745.208520   -484.932660
PE11   5950.092294 -19581.218570  21376.892793   1708.461185
PE12  17517.042114    759.946985  23848.459308   -231.931885
PE13  -6481.213336  18882.347363 -21848.389627    430.676295
PE14   9596.245595  19043.910862 -19761.781538     32.835659
PE15 -17535.432827  -1034.709950 -23819.104301    712.896583
PE18 -24617.499764 -12574.339380   7674.629842   -840.591165
PE19  23283.016704  11694.055413  14049.874438  -4218.431354
PE24  17400.612856 -23947.103976   -869.210200   -901.137643
PE25   2148.327528 -23925.588792  17311.646329   -590.632760
PE26   8763.883980  27575.014746  -6206.284547  -1748.045244
PE27 -16763.438814  24388.315017    -88.993239   -419.630085
PE30 -21604.419865   9758.240343  17713.664095   -930.820631
PE31  21615.077025 -10654.128046 -17179.339200   -506.165423
PE33  18174.292120  20202.977432  11735.379564   -454.867930
PE34 -18261.171689 -20051.278543 -11885.750594    -10.369812
PE36  -8258.740156 -27529.356388   7090.104121   -448.528661
PG01  15516.592176   1895.183544  21223.772215    264.690434
PG02 -16389.577357  -2231.677179 -20120.893526   -641.600186
PG03  19756.602533  -6777.016106  16220.866977   -366.266137
PG04  25699.352540    229.725929  -6910.978578   -100.652144
PG05 -15013.813332  -4958.850273 -21530.498111   -101.081270
PG06  -5907.100399 -25387.842158   4945.229885    496.243980
PG07   9462.432953 -14548.639292 -19544.710494    296.872981
PG08  25811.370584   6124.582172  -3537.573272    -89.731405
PG09  19208.605524  -8818.544186 -16191.084868   -280.717868
PG10  -9179.044206  22503.037680  10485.705229     -8.275418
PG11 -12115.130253 -22674.179236  -6748.462798    -28.042173
PG12 -20171.454405   5114.283662  16178.381912   -294.364447
PG13 -21005.625328 -13406.010808  -9628.606296    409.365745
PG14  11547.600613 -22293.163479   8498.499180    -93.151016
PG15 -26249.377148  -3644.689958  -3833.405919    -19.412437
PG16  10172.097312  11318.829382 -22033.612917   -526.431815
PG17   5913.398052 -14027.589815  22210.516342    670.415714
PG18  -8269.098987  16126.126326 -19370.450328      8.319650
PG19  -6448.326088 -15903.845782  20108.630304    226.202551
PG20  -5963.882230 -17415.011290 -19213.488625    476.915837
PG21  18277.286824  10205.092727  17381.380271    157.699503
PG22   9246.390496  16243.448899  19359.006308    349.006186
PG23 -16225.054911  20935.666032    -57.920680     -1.079540
PG24 -17871.542047  -5402.857070  18712.995737     92.878963
PG25 -19659.218652  15723.257210   7722.065343    384.220336
PG26   2507.712529  19252.764576 -18070.181616    233.094738
PG27  19078.394936  12761.203844 -13919.785719    194.876825
PG28   4404.380638 -20777.943780  16603.059268    326.633986
PG29 -20787.400131   5728.128097 -15605.895374   -561.017644
PG30   1356.647210 -23234.051865 -12471.584815   -537.185657
PG31   6368.652594  25285.538145   3344.217241   -197.400521
PG32  -1708.235990  15249.013868  21831.053585   -269.074958
PJ02 -33277.615978  25565.598022   8846.283205     -7.673305
PJ03 -22626.729354  19049.951015 -25451.305599     -3.176925
PJ04 -27258.483291  32262.369354   8060.173082    111.975105
PJ07 -25405.145040  33640.528172     52.562122     -0.002030
PR01  18498.619879 -12033.677134 -12793.903585     16.529222
PR02    368.946033 -11234.566425 -22867.475957    -23.053746
PR03 -17150.711666  -4259.886862 -18329.761862     65.789390
PR04 -24742.881607   4899.887879  -3721.797029    161.830240
PR05 -18837.240701  11303.567394  12941.694525    101.532644
PR06   1329.805949  11099.465107  22909.115598    -75.943786
PR07  17813.751443   3879.938973  17897.494217     42.866322
PR08  24763.194788  -5016.165309   3683.941217    -67.719431
PR09  -1396.143076  24102.834744  -8329.563429     83.009619
PR10   6642.140655  13936.267018 -20285.857806    -87.037323
PR11  11935.222835  -5172.751708 -21926.426950     24.043084
PR12  10011.579920 -21536.131944  -9303.400049     22.177811
PR13   2452.662904 -24426.404887   6921.823879    -27.994532
PR14  -7390.636175 -12490.116655  20987.549322     24.196358
PR15 -12226.432805   6105.523921  21561.252172     93.116720
PR17 -18789.553615 -17114.862337  -2446.231821    570.685767
PR18 -17427.389726  -6516.922931 -17410.470071     47.955433
PR19  -8275.559030   6274.842955 -23295.342722   -207.941133
PR20   8395.739427  18794.623805 -15075.447887    -80.559139
PR21  18998.300579  16489.562898   4112.144549   -343.012059
PR22  17161.830088   6358.306688  17799.869412 999999.999999
PR23   3975.365411 -10539.197114  22882.478443    -59.137027
PR24  -9193.217831 -18928.670233  14455.413385    121.415701
EOF
